$$SOE
2459580.500000000, A.D. 2022-Jan-01 00:00:00.0000, 3.124165348643739E+07, -3.319543191133398E+08, 3.992435025987649E+07,
2459587.500000000, A.D. 2022-Jan-08 00:00:00.0000, 4.358789202542210E+07, -3.306625582472802E+08, 3.931240516384843E+07,
2459594.500000000, A.D. 2022-Jan-15 00:00:00.0000, 5.587830613646388E+07, -3.289470352337043E+08, 3.865007407618986E+07,
2459601.500000000, A.D. 2022-Jan-22 00:00:00.0000, 6.809719054960513E+07, -3.268101684524978E+08, 3.793823092216392E+07,
2459608.500000000, A.D. 2022-Jan-29 00:00:00.0000, 8.022897153676219E+07, -3.242550205884440E+08, 3.717782496611945E+07,
2459615.500000000, A.D. 2022-Feb-05 00:00:00.0000, 9.225823650773245E+07, -3.212852911368619E+08, 3.636987878504255E+07,
2459622.500000000, A.D. 2022-Feb-12 00:00:00.0000, 1.041697651228041E+08, -3.179053080902434E+08, 3.551548574711731E+07,
2459629.500000000, A.D. 2022-Feb-19 00:00:00.0000, 1.159485604625176E+08, -3.141200164996154E+08, 3.461580732339025E+07,
2459636.500000000, A.D. 2022-Feb-26 00:00:00.0000, 1.275798788140671E+08, -3.099349647066247E+08, 3.367207030758202E+07,
2459643.500000000, A.D. 2022-Mar-05 00:00:00.0000, 1.390492581121363E+08, -3.053562889457306E+08, 3.268556389356126E+07,
2459650.500000000, A.D. 2022-Mar-12 00:00:00.0000, 1.503425451431134E+08, -3.003906964742482E+08, 3.165763660009864E+07,
2459657.500000000, A.D. 2022-Mar-19 00:00:00.0000, 1.614459214797085E+08, -2.950454473024919E+08, 3.058969305452056E+07,
2459664.500000000, A.D. 2022-Mar-26 00:00:00.0000, 1.723459280740904E+08, -2.893283346363460E+08, 2.948319064863388E+07,
2459671.500000000, A.D. 2022-Apr-02 00:00:00.0000, 1.830294884952900E+08, -2.832476641996319E+08, 2.833963607233538E+07,
2459678.500000000, A.D. 2022-Apr-09 00:00:00.0000, 1.934839310147441E+08, -2.768122325500062E+08, 2.716058171779531E+07,
2459685.500000000, A.D. 2022-Apr-16 00:00:00.0000, 2.036970098408560E+08, -2.700313038608090E+08, 2.594762199355364E+07,
2459692.500000000, A.D. 2022-Apr-23 00:00:00.0000, 2.136569241866877E+08, -2.629145842153765E+08, 2.470238977191208E+07,
2459699.500000000, A.D. 2022-Apr-30 00:00:00.0000, 2.233523332623978E+08, -2.554721957886806E+08, 2.342655297465669E+07,
2459706.500000000, A.D. 2022-May-07 00:00:00.0000, 2.327723702280140E+08, -2.477146530170726E+08, 2.212181087090114E+07,
2459713.500000000, A.D. 2022-May-14 00:00:00.0000, 2.419066564805540E+08, -2.396528378463661E+08, 2.078989022381924E+07,
2459720.500000000, A.D. 2022-May-21 00:00:00.0000, 2.507453142369846E+08, -2.312979734264370E+08, 1.943254154951021E+07,
2459727.500000000, A.D. 2022-May-28 00:00:00.0000, 2.592789769351825E+08, -2.226615973302259E+08, 1.805153546678063E+07,
2459734.500000000, A.D. 2022-Jun-04 00:00:00.0000, 2.674987977448526E+08, -2.137555347212939E+08, 1.664865909949081E+07,
2459741.500000000, A.D. 2022-Jun-11 00:00:00.0000, 2.753964563647372E+08, -2.045918715767297E+08, 1.522571253187712E+07,
2459748.500000000, A.D. 2022-Jun-18 00:00:00.0000, 2.829641641893119E+08, -1.951829280631894E+08, 1.378450532869962E+07,
2459755.500000000, A.D. 2022-Jun-25 00:00:00.0000, 2.901946679238887E+08, -1.855412322104106E+08, 1.232685312824444E+07,
2459762.500000000, A.D. 2022-Jul-02 00:00:00.0000, 2.970812518321292E+08, -1.756794940519394E+08, 1.085457430154144E+07,
2459769.500000000, A.D. 2022-Jul-09 00:00:00.0000, 3.036177390601745E+08, -1.656105801479772E+08, 9.369486665507078E+06,
2459776.500000000, A.D. 2022-Jul-16 00:00:00.0000, 3.097984920459139E+08, -1.553474874913656E+08, 7.873404352122232E+06,
2459783.500000000, A.D. 2022-Jul-23 00:00:00.0000, 3.156184098846224E+08, -1.449033167995537E+08, 6.368135049243659E+06,
2459790.500000000, A.D. 2022-Jul-30 00:00:00.0000, 3.210729228029298E+08, -1.342912486180451E+08, 4.855477336591907E+06,
2459797.500000000, A.D. 2022-Aug-06 00:00:00.0000, 3.261579874095901E+08, -1.235245216461577E+08, 3.337217843869880E+06,
2459804.500000000, A.D. 2022-Aug-13 00:00:00.0000, 3.308700819765588E+08, -1.126164105830283E+08, 1.815128535553895E+06,
2459811.500000000, A.D. 2022-Aug-20 00:00:00.0000, 3.352062002607989E+08, -1.015802040453038E+08, 2.909642283854410E+05,
2459818.500000000, A.D. 2022-Aug-27 00:00:00.0000, 3.391638440141266E+08, -9.042918332478335E+07, -1.233539721960694E+06,
2459825.500000000, A.D. 2022-Sep-03 00:00:00.0000, 3.427410145068200E+08, -7.917660213102174E+07, -2.756669595679775E+06,
2459832.500000000, A.D. 2022-Sep-10 00:00:00.0000, 3.459362032313569E+08, -6.783566732193054E+07, -4.276735351033911E+06,
2459839.500000000, A.D. 2022-Sep-17 00:00:00.0000, 3.487483818907778E+08, -5.641952064339747E+07, -5.792072536979400E+06,
2459846.500000000, A.D. 2022-Sep-24 00:00:00.0000, 3.511769918066017E+08, -4.494122154104079E+07, -7.301044086707011E+06,
2459853.500000000, A.D. 2022-Oct-01 00:00:00.0000, 3.532219330591841E+08, -3.341373107265205E+07, -8.802042017519159E+06,
2459860.500000000, A.D. 2022-Oct-08 00:00:00.0000, 3.548835538380989E+08, -2.184989639822032E+07, -1.029348903399000E+07,
2459867.500000000, A.D. 2022-Oct-15 00:00:00.0000, 3.561626391447346E+08, -1.026243464030551E+07, -1.177383985329473E+07,
2459874.500000000, A.D. 2022-Oct-22 00:00:00.0000, 3.570603967446660E+08, 1.336082207531205E+06, -1.324158219344809E+07,
2459881.500000000, A.D. 2022-Oct-29 00:00:00.0000, 3.575784429364110E+08, 1.293323873546662E+07, -1.469523787022373E+07,
2459888.500000000, A.D. 2022-Nov-05 00:00:00.0000, 3.577187902939057E+08, 2.451678668889372E+07, -1.613336397609098E+07,
2459895.500000000, A.D. 2022-Nov-12 00:00:00.0000, 3.574838354750247E+08, 3.607465594194766E+07, -1.755455386186761E+07,
2459902.500000000, A.D. 2022-Nov-19 00:00:00.0000, 3.568763464320822E+08, 4.759496493930756E+07, -1.895743793768987E+07,
2459909.500000000, A.D. 2022-Nov-26 00:00:00.0000, 3.558994493377210E+08, 5.906603023178746E+07, -2.034068435457144E+07,
2459916.500000000, A.D. 2022-Dec-03 00:00:00.0000, 3.545566154394514E+08, 7.047637511963354E+07, -2.170299958752000E+07,
2459923.500000000, A.D. 2022-Dec-10 00:00:00.0000, 3.528516479321121E+08, 8.181473744991165E+07, -2.304312892768041E+07,
2459930.500000000, A.D. 2022-Dec-17 00:00:00.0000, 3.507886689136235E+08, 9.307007657256590E+07, -2.435985689267959E+07,
2459937.500000000, A.D. 2022-Dec-24 00:00:00.0000, 3.483721065714474E+08, 1.042315794201196E+08, -2.565200757558880E+07,
2459944.500000000, A.D. 2022-Dec-31 00:00:00.0000, 3.456066829919341E+08, 1.152886658489032E+08, -2.691844496172743E+07,
2459951.500000000, A.D. 2023-Jan-07 00:00:00.0000, 3.424974027423225E+08, 1.262309942343303E+08, -2.815807315077916E+07,
2459958.500000000, A.D. 2023-Jan-14 00:00:00.0000, 3.390495402816018E+08, 1.370484678530931E+08, -2.936983626735348E+07,
2459965.500000000, A.D. 2023-Jan-21 00:00:00.0000, 3.352686255862554E+08, 1.477312389176608E+08, -3.055271826539999E+07,
2459972.500000000, A.D. 2023-Jan-28 00:00:00.0000, 3.311604316853588E+08, 1.582697100978086E+08, -3.170574298490322E+07,
2459979.500000000, A.D. 2023-Feb-04 00:00:00.0000, 3.267309639121326E+08, 1.686545365863430E+08, -3.282797419921140E+07,
2459986.500000000, A.D. 2023-Feb-11 00:00:00.0000, 3.219864490900716E+08, 1.788766285460781E+08, -3.391851550854898E+07,
2459993.500000000, A.D. 2023-Feb-18 00:00:00.0000, 3.169333246004688E+08, 1.889271531441629E+08, -3.497651014513958E+07,
2460000.500000000, A.D. 2023-Feb-25 00:00:00.0000, 3.115782275990361E+08, 1.987975360419865E+08, -3.600114073047576E+07,
2460007.500000000, A.D. 2023-Mar-04 00:00:00.0000, 3.059279844865639E+08, 2.084794623930671E+08, -3.699162899552444E+07,
2460014.500000000, A.D. 2023-Mar-11 00:00:00.0000, 2.999896006671604E+08, 2.179648773860286E+08, -3.794723546998763E+07,
2460021.500000000, A.D. 2023-Mar-18 00:00:00.0000, 2.937702506492425E+08, 2.272459863191083E+08, -3.886725915338383E+07,
2460028.500000000, A.D. 2023-Mar-25 00:00:00.0000, 2.872772687014157E+08, 2.363152541913084E+08, -3.975103719528285E+07,
2460035.500000000, A.D. 2023-Apr-01 00:00:00.0000, 2.805181404943986E+08, 2.451654052310192E+08, -4.059794459615823E+07,
2460042.500000000, A.D. 2023-Apr-08 00:00:00.0000, 2.735004951134131E+08, 2.537894236086685E+08, -4.140739377567738E+07,
2460049.500000000, A.D. 2023-Apr-15 00:00:00.0000, 2.662320950958779E+08, 2.621805542508732E+08, -4.217883388612822E+07,
2460056.500000000, A.D. 2023-Apr-22 00:00:00.0000, 2.587208263012496E+08, 2.703323007344808E+08, -4.291175028955829E+07,
2460063.500000000, A.D. 2023-Apr-29 00:00:00.0000, 2.509746903476971E+08, 2.782384225366645E+08, -4.360566426920604E+07,
2460070.500000000, A.D. 2023-May-06 00:00:00.0000, 2.430017978475938E+08, 2.858929334415902E+08, -4.426013267034748E+07,
2460077.500000000, A.D. 2023-May-13 00:00:00.0000, 2.348103614565075E+08, 2.932901002315674E+08, -4.487474745603344E+07,
2460084.500000000, A.D. 2023-May-20 00:00:00.0000, 2.264086889623759E+08, 3.004244411927370E+08, -4.544913524170297E+07,
2460091.500000000, A.D. 2023-May-27 00:00:00.0000, 2.178051766006296E+08, 3.072907244255322E+08, -4.598295683118328E+07,
2460098.500000000, A.D. 2023-Jun-03 00:00:00.0000, 2.090083026444589E+08, 3.138839660042040E+08, -4.647590675944249E+07,
2460105.500000000, A.D. 2023-Jun-10 00:00:00.0000, 2.000266212849574E+08, 3.201994279887867E+08, -4.692771284743533E+07,
2460112.500000000, A.D. 2023-Jun-17 00:00:00.0000, 1.908687568805449E+08, 3.262326162456502E+08, -4.733813578399174E+07,
2460119.500000000, A.D. 2023-Jun-24 00:00:00.0000, 1.815433988858706E+08, 3.319792781482454E+08, -4.770696876143883E+07,
2460126.500000000, A.D. 2023-Jul-01 00:00:00.0000, 1.720592977047108E+08, 3.374354010013829E+08, -4.803403712265551E+07,
2460133.500000000, A.D. 2023-Jul-08 00:00:00.0000, 1.624252597838212E+08, 3.425972120210398E+08, -4.831919780013719E+07,
2460140.500000000, A.D. 2023-Jul-15 00:00:00.0000, 1.526501406558325E+08, 3.474611770481569E+08, -4.856233866072972E+07,
2460147.500000000, A.D. 2023-Jul-22 00:00:00.0000, 1.427428394402082E+08, 3.520239969788511E+08, -4.876337816514575E+07,
$$EOE